FLOCK 4G-18             
1 62680U 25009BZ  26068.19114186  .00011766  00000+0  44319-3 0  9995
2 62680  97.4054 150.5008 0004100 335.7331  24.3715 15.27241676121267
STARLINK-35876          
1 67180U 25303T   26068.15033222  .00024824  00000+0  90905-3 0  9990
2 67180  43.0004 313.6750 0001780 280.7112  79.3539 15.27561943 12650
